     2.10           G: GLONASS NAV DATA                     RINEX VERSION / TYPE
teqc  2015Jun23                         20220123 01:25:44UTCPGM / RUN BY / DATE
Linux 2.4.21-27.ELsmp|Opteron|gcc -static|Linux x86_64|=+   COMMENT
  2021    12    30    1.396983861923D-09                    CORR TO SYSTEM TIME
                                                            END OF HEADER
 1 21 12 31  5 15  0.0 7.309019565582D-06-0.000000000000D+00 1.800000000000D+04
   -4.607491699219D+03-1.329012870789D+00 9.313225746155D-10 0.000000000000D+00
    1.878089941406D+04 1.852628707886D+00 0.000000000000D+00 1.000000000000D+00
    1.663608984375D+04-2.458195686340D+00-3.725290298462D-09 0.000000000000D+00
 8 21 12 31  5 15  0.0-6.281211972237D-05-0.000000000000D+00 1.800000000000D+04
   -1.519613916016D+04-9.554576873779D-02 2.793967723846D-09 0.000000000000D+00
    2.031029345703D+04 3.720064163208D-01 9.313225746155D-10 6.000000000000D+00
    2.588721191406D+03-3.551433563232D+00-1.862645149231D-09 0.000000000000D+00
 7 21 12 31  5 15  0.0-3.876350820065D-05-0.000000000000D+00 1.800000000000D+04
   -1.807933398438D+04 1.280979156494D+00 2.793967723846D-09 0.000000000000D+00
    1.184214453125D+04-1.345561027527D+00 1.862645149231D-09 5.000000000000D+00
   -1.347349316406D+04-2.899080276489D+00 0.000000000000D+00 0.000000000000D+00
12 21 12 31  5 15  0.0 2.909535542130D-04 2.728484105319D-12 1.800000000000D+04
    7.455480957031D+03-2.000617980957D-02 9.313225746155D-10 0.000000000000D+00
    2.414760693359D+04-4.853563308716D-01 3.725290298462D-09-1.000000000000D+00
    3.386271972656D+03 3.530530929565D+00-3.725290298462D-09 0.000000000000D+00
13 21 12 31  5 15  0.0-1.639500260353D-05-0.000000000000D+00 1.899000000000D+04
    1.348999218750D+04 7.690782546997D-01 9.313225746155D-10 0.000000000000D+00
    1.729489648438D+04 1.611895561218D+00 6.519258022308D-09-2.000000000000D+00
   -1.303478027344D+04 2.939269065857D+00-1.862645149231D-09 0.000000000000D+00
 1 21 12 31  5 45  0.0 7.309019565582D-06-0.000000000000D+00 1.980000000000D+04
   -6.428956542969D+03-7.029857635498D-01 1.862645149231D-09 0.000000000000D+00
    2.177858642578D+04 1.433820724487D+00 0.000000000000D+00 1.000000000000D+00
    1.162545800781D+04-3.073019981384D+00-2.793967723846D-09 0.000000000000D+00
 8 21 12 31  5 45  0.0-6.281305104494D-05-0.000000000000D+00 1.980000000000D+04
   -1.487492431641D+04 4.184770584106D-01 2.793967723846D-09 0.000000000000D+00
    2.033772558594D+04-3.644599914551D-01 9.313225746155D-10 6.000000000000D+00
   -3.821359375000D+03-3.524522781372D+00-9.313225746155D-10 0.000000000000D+00
 7 21 12 31  5 45  0.0-3.876350820065D-05-0.000000000000D+00 1.980000000000D+04
   -1.562221337891D+04 1.404050827026D+00 2.793967723846D-09 0.000000000000D+00
    8.769524902344D+03-2.056483268738D+00 9.313225746155D-10 5.000000000000D+00
   -1.810075634766D+04-2.208782196045D+00 9.313225746155D-10 0.000000000000D+00
12 21 12 31  5 45  0.0 2.909591421485D-04 2.728484105319D-12 1.980000000000D+04
    7.020191406250D+03-4.930934906006D-01 1.862645149231D-09 0.000000000000D+00
    2.259239404297D+04-1.213004112244D+00 2.793967723846D-09-1.000000000000D+00
    9.527987304688D+03 3.249280929565D+00-3.725290298462D-09 0.000000000000D+00
13 21 12 31  5 45  0.0-1.639593392611D-05-0.000000000000D+00 1.980000000000D+04
    1.477023388672D+04 6.106424331665D-01 1.862645149231D-09 0.000000000000D+00
    1.947289111328D+04 8.027343750000D-01 5.587935447693D-09-2.000000000000D+00
   -7.308772949219D+03 3.381710052490D+00-2.793967723846D-09 0.000000000000D+00
22 21 12 31  5 45  0.0-1.549702137709D-04-2.728484105319D-12 2.157000000000D+04
   -1.678591259766D+04-2.450311660767D+00 2.793967723846D-09 0.000000000000D+00
    7.084688964844D+03 2.819252014160D-02 9.313225746155D-10-3.000000000000D+00
   -1.781191992188D+04 2.329717636108D+00 9.313225746155D-10 0.000000000000D+00
 1 21 12 31  6 15  0.0 7.309019565582D-06-0.000000000000D+00 2.160000000000D+04
   -7.198399414062D+03-1.765022277832D-01 2.793967723846D-09 0.000000000000D+00
    2.379845849609D+04 7.760353088379D-01 0.000000000000D+00 1.000000000000D+00
    5.716141113281D+03-3.450258255005D+00-2.793967723846D-09 0.000000000000D+00
 8 21 12 31  6 15  0.0-6.281491369009D-05-0.000000000000D+00 2.160000000000D+04
   -1.382858691406D+04 7.023115158081D-01 3.725290298462D-09 0.000000000000D+00
    1.894727636719D+04-1.185264587402D+00 9.313225746155D-10 6.000000000000D+00
   -9.935030761719D+03-3.224118232727D+00-0.000000000000D+00 0.000000000000D+00
12 21 12 31  6 15  0.0 2.909647300839D-04 2.728484105319D-12 2.160000000000D+04
    5.599802734375D+03-1.099507331848D+00 9.313225746155D-10 0.000000000000D+00
    1.991168310547D+04-1.723741531372D+00 0.000000000000D+00-1.000000000000D+00
    1.493268164062D+04 2.717015266418D+00-3.725290298462D-09 0.000000000000D+00
13 21 12 31  6 15  0.0-1.639686524868D-05-0.000000000000D+00 2.160000000000D+04
    1.553878759766D+04 2.045183181763D-01 2.793967723846D-09 0.000000000000D+00
    2.020011718750D+04 1.894664764404D-02 4.656612873077D-09-2.000000000000D+00
   -1.017783691406D+03 3.562897682190D+00-3.725290298462D-09 0.000000000000D+00
22 21 12 31  6 15  0.0-1.549748703837D-04-2.728484105319D-12 2.160000000000D+04
   -2.060858398438D+04-1.761566162109D+00 1.862645149231D-09 0.000000000000D+00
    7.446552246094D+03 3.415307998657D-01-0.000000000000D+00-3.000000000000D+00
   -1.298166503906D+04 3.002395629883D+00 9.313225746155D-10 0.000000000000D+00
 2 21 12 31  6 15  0.0 5.050105974078D-04 9.094947017729D-13 2.196000000000D+04
    4.686878906250D+03-1.149861335754D+00 0.000000000000D+00 0.000000000000D+00
    1.354823535156D+04 2.646450996399D+00-0.000000000000D+00-4.000000000000D+00
    2.111745947266D+04-1.451266288757D+00-3.725290298462D-09 0.000000000000D+00
23 21 12 31  6 15  0.0-2.514850348234D-05-9.094947017729D-13 2.217000000000D+04
   -5.156284179688D+02-3.178612709045D+00 2.793967723846D-09 0.000000000000D+00
    1.046141455078D+04 2.678737640381D-01 3.725290298462D-09 3.000000000000D+00
   -2.325836962891D+04 1.910181045532D-01 9.313225746155D-10 0.000000000000D+00
 1 21 12 31  6 45  0.0 7.309019565582D-06-0.000000000000D+00 2.340000000000D+04
   -7.175689941406D+03 1.656379699707D-01 3.725290298462D-09 0.000000000000D+00
    2.447478320312D+04-4.336357116699D-02 0.000000000000D+00 1.000000000000D+00
   -6.350253906250D+02-3.560784339905D+00-1.862645149231D-09 0.000000000000D+00
12 21 12 31  6 45  0.0 2.909703180194D-04 3.637978807092D-12 2.340000000000D+04
    3.042302246094D+03-1.738355636597D+00 0.000000000000D+00 0.000000000000D+00
    1.654958056641D+04-1.964895248413D+00-0.000000000000D+00-1.000000000000D+00
    1.918324658203D+04 1.975296974182D+00-3.725290298462D-09 0.000000000000D+00
 8 21 12 31  6 45  0.0-6.281584501266D-05-0.000000000000D+00 2.340000000000D+04
   -1.250048828125D+04 7.312211990356D-01 2.793967723846D-09 0.000000000000D+00
    1.608884228516D+04-1.975991249084D+00 9.313225746155D-10 6.000000000000D+00
   -1.527735009766D+04-2.672990798950D+00 9.313225746155D-10 0.000000000000D+00
 2 21 12 31  6 45  0.0 5.050133913755D-04 9.094947017729D-13 2.340000000000D+04
    3.101164550781D+03-6.164331436157D-01 9.313225746155D-10 0.000000000000D+00
    1.808442626953D+04 2.344699859619D+00-0.000000000000D+00-4.000000000000D+00
    1.772370068359D+04-2.295354843140D+00-3.725290298462D-09 0.000000000000D+00
13 21 12 31  6 45  0.0-1.639779657125D-05-0.000000000000D+00 2.340000000000D+04
    1.538438769531D+04-4.038572311401D-01 2.793967723846D-09 0.000000000000D+00
    1.962098925781D+04-6.325340270996D-01 2.793967723846D-09-2.000000000000D+00
    5.351878417969D+03 3.468504905701D+00-3.725290298462D-09 0.000000000000D+00
22 21 12 31  6 45  0.0-1.549804583192D-04-2.728484105319D-12 2.340000000000D+04
   -2.303012353516D+04-9.112710952759D-01 9.313225746155D-10 0.000000000000D+00
    8.178727539062D+03 4.304761886597D-01-1.862645149231D-09-3.000000000000D+00
   -7.143184570312D+03 3.442535400391D+00 9.313225746155D-10 0.000000000000D+00
23 21 12 31  6 45  0.0-2.515036612749D-05-9.094947017729D-13 2.340000000000D+04
   -6.064371582031D+03-2.935966491699D+00 3.725290298462D-09 0.000000000000D+00
    1.135771142578D+04 7.123193740845D-01 1.862645149231D-09 3.000000000000D+00
   -2.202001904297D+04 1.176002502441D+00 9.313225746155D-10 0.000000000000D+00
 1 21 12 31  7 15  0.0 7.308088243008D-06-0.000000000000D+00 2.520000000000D+04
   -6.743329101562D+03 2.738742828369D-01 3.725290298462D-09 0.000000000000D+00
    2.360809179688D+04-9.194898605347D-01 0.000000000000D+00 1.000000000000D+00
   -6.937126464844D+03-3.396102905273D+00-9.313225746155D-10 0.000000000000D+00
12 21 12 31  7 15  0.0 2.909796312451D-04 3.637978807092D-12 2.520000000000D+04
   -6.111035156250D+02-2.298873901367D+00-0.000000000000D+00 0.000000000000D+00
    1.300568115234D+04-1.928209304810D+00-1.862645149231D-09-1.000000000000D+00
    2.195238427734D+04 1.081686973572D+00-2.793967723846D-09 0.000000000000D+00
 8 21 12 31  7 15  0.0-6.281770765781D-05-9.094947017729D-13 2.520000000000D+04
   -1.133750244141D+04 5.260295867920D-01 2.793967723846D-09 0.000000000000D+00
    1.192010986328D+04-2.623385429382D+00 0.000000000000D+00 6.000000000000D+00
   -1.943259423828D+04-1.913747787476D+00 1.862645149231D-09 0.000000000000D+00
 2 21 12 31  7 15  0.0 5.050152540207D-04 9.094947017729D-13 2.520000000000D+04
    2.420160644531D+03-1.617031097412D-01 1.862645149231D-09 0.000000000000D+00
    2.182397900391D+04 1.769121170044D+00-0.000000000000D+00-4.000000000000D+00
    1.296014160156D+04-2.963292121887D+00-2.793967723846D-09 0.000000000000D+00
13 21 12 31  7 15  0.0-1.639872789383D-05-0.000000000000D+00 2.520000000000D+04
    1.401271679688D+04-1.131725311279D+00 1.862645149231D-09 0.000000000000D+00
    1.805241894531D+04-1.069597244263D+00 9.313225746155D-10-2.000000000000D+00
    1.130729052734D+04 3.105576515198D+00-3.725290298462D-09 0.000000000000D+00
